[{"OBJECT_NAME":"STARLINK-4347","OBJECT_ID":"2022-077AK","EPOCH":"2026-03-09T22:19:15.004992","MEAN_MOTION":15.01261216,"ECCENTRICITY":0.00027224,"INCLINATION":97.6031,"RA_OF_ASC_NODE":250.4472,"ARG_OF_PERICENTER":150.2729,"MEAN_ANOMALY":209.8651,"EPHEMERIS_TYPE":0,"CLASSIFICATION_TYPE":"U","NORAD_CAT_ID":53076,"ELEMENT_SET_NO":999,"REV_AT_EPOCH":20095,"BSTAR":2.0561618e-5,"MEAN_MOTION_DOT":2.06e-6,"MEAN_MOTION_DDOT":0},{"OBJECT_NAME":"TITAN 3C TRANSTAGE DEB","OBJECT_ID":"1965-082MY","EPOCH":"2026-03-09T02:07:30.980928","MEAN_MOTION":14.9794194,"ECCENTRICITY":0.0005374,"INCLINATION":32.3706,"RA_OF_ASC_NODE":83.5066,"ARG_OF_PERICENTER":10.5158,"MEAN_ANOMALY":349.5614,"EPHEMERIS_TYPE":0,"CLASSIFICATION_TYPE":"U","NORAD_CAT_ID":3386,"ELEMENT_SET_NO":999,"REV_AT_EPOCH":23080,"BSTAR":0.0004514074,"MEAN_MOTION_DOT":5.483e-5,"MEAN_MOTION_DDOT":0}]
